EUTELSAT 21B            
1 38992U 12062B   25328.74142624  .00000150  00000+0  00000+0 0  9996
2 38992   0.0689   1.4444 0003316 254.6211  96.3983  1.00270242 47778
EUTELSAT 70B            
1 39020U 12069A   25328.78310046 -.00000024  00000+0  00000+0 0  9996
2 39020   0.0675  13.9615 0004451 223.6792 178.7749  1.00271930 47450
EUTELSAT 117 WEST A     
1 39122U 13012A   25328.70365109  .00000007  00000+0  00000+0 0  9990
2 39122   0.0144 351.5757 0002707 247.2642 321.6024  1.00271569 46384
EUTELSAT 7B             
1 39163U 13022A   25328.72817791  .00000068  00000+0  00000+0 0  9994
2 39163   0.0732  15.8206 0003728 298.9321  18.3356  1.00271430 45904
EXPRESS-AT1             
1 39612U 14010A   25328.91571758  .00000098  00000+0  00000+0 0  9995
2 39612   0.0147 271.0821 0000617 216.4662 322.2426  1.00271592 42775
EXPRESS-AT2             
1 39613U 14010B   25328.82585183 -.00000261  00000+0  00000+0 0  9996
2 39613   0.0145 280.4568 0001029  10.2639 210.4994  1.00273250 42454
EUTELSAT 3B             
1 39773U 14030A   25328.72739791  .00000040  00000+0  00000+0 0  9994
2 39773   0.0646 341.0928 0004639 236.3431 111.4986  1.00271629 42013
EUTELSAT 115 WEST B     
1 40425U 15010B   25328.63267066 -.00000005  00000+0  00000+0 0  9992
2 40425   0.0089 168.3360 0000324 105.6081 262.7640  1.00270583 39343
